{
"type": "FeatureCollection",
"name": "Bach Thao Boundary",
"crs": { "type": "name", "properties": { "name": "urn:ogc:def:crs:EPSG::3857" } },
"features": [
{ "type": "Feature", "properties": { }, "geometry": { "type": "Polygon", "coordinates": [ [ [ 11780800.390558581799269, 2396603.023880799300969 ], [ 11780814.472474165260792, 2396612.720615764614195 ], [ 11780840.198408488184214, 2396641.417257260996848 ], [ 11780885.616760730743408, 2396692.071832745801657 ], [ 11780951.740538263693452, 2396765.245108862873167 ], [ 11780985.370156431570649, 2396802.458039716817439 ], [ 11781011.897591086104512, 2396821.040679883677512 ], [ 11781028.217028439044952, 2396832.478912860620767 ], [ 11781061.468160336837173, 2396847.721950110979378 ], [ 11781101.509781174361706, 2396857.705073144286871 ], [ 11781116.638099974021316, 2396860.937363883014768 ], [ 11781143.577416745945811, 2396865.624782863073051 ], [ 11781148.163779767230153, 2396866.495474056806415 ], [ 11781196.743605548515916, 2396870.538821391295642 ], [ 11781325.863082921132445, 2396874.701442470308393 ], [ 11781356.531602634117007, 2396873.544496112503111 ], [ 11781378.639653503894806, 2396872.494895359035581 ], [ 11781390.372727835550904, 2396871.946240443736315 ], [ 11781410.443632025271654, 2396871.397585545200855 ], [ 11781472.214817466214299, 2396869.20296612335369 ], [ 11781489.870088707655668, 2396867.879038232844323 ], [ 11781508.694214599207044, 2396867.103765190113336 ], [ 11781628.273611610755324, 2396847.805440960917622 ], [ 11781630.555661171674728, 2396834.14872851036489 ], [ 11781629.164167534559965, 2396827.04008583445102 ], [ 11781594.26550717279315, 2396649.146036460064352 ], [ 11781573.114803921431303, 2396541.289318338502198 ], [ 11781525.792809169739485, 2396254.160489798989147 ], [ 11781509.905373405665159, 2396245.620993075892329 ], [ 11781460.058543695136905, 2396258.52953463466838 ], [ 11781418.155431864783168, 2396265.281694834586233 ], [ 11781402.0694031547755, 2396213.448935653083026 ], [ 11781381.812922555953264, 2396144.735775971319526 ], [ 11781370.294531626626849, 2396151.88512206543237 ], [ 11781370.294531626626849, 2396163.403512994758785 ], [ 11781363.939557319507003, 2396178.496576970908791 ], [ 11781350.832422813400626, 2396196.369942205958068 ], [ 11781331.370314002037048, 2396219.406724064610898 ], [ 11781315.482878236100078, 2396239.266018770169467 ], [ 11781300.787000155076385, 2396256.742198111489415 ], [ 11781287.282679753378034, 2396274.814156293403357 ], [ 11781266.033234419301152, 2396298.843902887310833 ], [ 11781248.358462130650878, 2396313.142595075536519 ], [ 11781227.109016796573997, 2396319.497569381259382 ], [ 11781211.103819862008095, 2396322.703460429329425 ], [ 11781058.317818747833371, 2396351.423487353604287 ], [ 11781055.924449695274234, 2396368.25239513348788 ], [ 11781054.198997588828206, 2396375.170023081358522 ], [ 11781050.558850239962339, 2396379.213258595671505 ], [ 11781045.460417561233044, 2396382.612439605873078 ], [ 11781040.606887763366103, 2396382.791343887802213 ], [ 11780997.849071349948645, 2396382.15921543398872 ], [ 11780963.952286401763558, 2396381.014228102751076 ], [ 11780945.395327286794782, 2396381.109643711242825 ], [ 11780940.56406138651073, 2396381.133497613482177 ], [ 11780930.823605943471193, 2396381.181205417495221 ], [ 11780926.515541648492217, 2396382.564731798600405 ], [ 11780923.320672264322639, 2396383.590449701994658 ], [ 11780918.433746617287397, 2396385.999694313388318 ], [ 11780913.07927911169827, 2396392.82191349985078 ], [ 11780912.044007847085595, 2396414.767531447578222 ], [ 11780911.509674290195107, 2396421.744812398217618 ], [ 11780908.771214816719294, 2396428.316578670870513 ], [ 11780900.522440547123551, 2396437.214110021479428 ], [ 11780888.76710231974721, 2396443.284948312211782 ], [ 11780857.976131167262793, 2396453.35133307473734 ], [ 11780850.684704519808292, 2396455.223872101865709 ], [ 11780837.760511638596654, 2396458.47994361910969 ], [ 11780826.895729336887598, 2396487.939665419515222 ], [ 11780821.196171408519149, 2396503.289750346448272 ], [ 11780803.284865340217948, 2396551.749351791571826 ], [ 11780792.186312109231949, 2396585.777302536647767 ], [ 11780793.154791677370667, 2396598.90903176786378 ], [ 11780800.390558581799269, 2396603.023880799300969 ] ] ] } },
{ "type": "Feature", "properties": { }, "geometry": { "type": "Polygon", "coordinates": [ [ [ 11780800.390558581799269, 2396603.023880799300969 ], [ 11780814.472474165260792, 2396612.720615764614195 ], [ 11780840.198408488184214, 2396641.417257260996848 ], [ 11780885.616760730743408, 2396692.071832745801657 ], [ 11780951.740538263693452, 2396765.245108862873167 ], [ 11780985.370156431570649, 2396802.458039716817439 ], [ 11781011.897591086104512, 2396821.040679883677512 ], [ 11781028.217028439044952, 2396832.478912860620767 ], [ 11781061.468160336837173, 2396847.721950110979378 ], [ 11781101.509781174361706, 2396857.705073144286871 ], [ 11781116.638099974021316, 2396860.937363883014768 ], [ 11781143.577416745945811, 2396865.624782863073051 ], [ 11781148.163779767230153, 2396866.495474056806415 ], [ 11781196.743605548515916, 2396870.538821391295642 ], [ 11781325.863082921132445, 2396874.701442470308393 ], [ 11781356.531602634117007, 2396873.544496112503111 ], [ 11781378.639653503894806, 2396872.494895359035581 ], [ 11781390.372727835550904, 2396871.946240443736315 ], [ 11781410.443632025271654, 2396871.397585545200855 ], [ 11781472.214817466214299, 2396869.20296612335369 ], [ 11781489.870088707655668, 2396867.879038232844323 ], [ 11781508.694214599207044, 2396867.103765190113336 ], [ 11781628.273611610755324, 2396847.805440960917622 ], [ 11781630.555661171674728, 2396834.14872851036489 ], [ 11781629.164167534559965, 2396827.04008583445102 ], [ 11781594.26550717279315, 2396649.146036460064352 ], [ 11781573.114803921431303, 2396541.289318338502198 ], [ 11781525.792809169739485, 2396254.160489798989147 ], [ 11781509.905373405665159, 2396245.620993075892329 ], [ 11781460.058543695136905, 2396258.52953463466838 ], [ 11781418.155431864783168, 2396265.281694834586233 ], [ 11781402.0694031547755, 2396213.448935653083026 ], [ 11781381.812922555953264, 2396144.735775971319526 ], [ 11781370.294531626626849, 2396151.88512206543237 ], [ 11781370.294531626626849, 2396163.403512994758785 ], [ 11781363.939557319507003, 2396178.496576970908791 ], [ 11781350.832422813400626, 2396196.369942205958068 ], [ 11781331.370314002037048, 2396219.406724064610898 ], [ 11781315.482878236100078, 2396239.266018770169467 ], [ 11781300.787000155076385, 2396256.742198111489415 ], [ 11781287.282679753378034, 2396274.814156293403357 ], [ 11781266.033234419301152, 2396298.843902887310833 ], [ 11781248.358462130650878, 2396313.142595075536519 ], [ 11781227.109016796573997, 2396319.497569381259382 ], [ 11781211.103819862008095, 2396322.703460429329425 ], [ 11781058.317818747833371, 2396351.423487353604287 ], [ 11781055.924449695274234, 2396368.25239513348788 ], [ 11781054.198997588828206, 2396375.170023081358522 ], [ 11781050.558850239962339, 2396379.213258595671505 ], [ 11781045.460417561233044, 2396382.612439605873078 ], [ 11781040.606887763366103, 2396382.791343887802213 ], [ 11780997.849071349948645, 2396382.15921543398872 ], [ 11780963.952286401763558, 2396381.014228102751076 ], [ 11780945.395327286794782, 2396381.109643711242825 ], [ 11780940.56406138651073, 2396381.133497613482177 ], [ 11780930.823605943471193, 2396381.181205417495221 ], [ 11780926.515541648492217, 2396382.564731798600405 ], [ 11780923.320672264322639, 2396383.590449701994658 ], [ 11780918.433746617287397, 2396385.999694313388318 ], [ 11780913.07927911169827, 2396392.82191349985078 ], [ 11780912.044007847085595, 2396414.767531447578222 ], [ 11780911.509674290195107, 2396421.744812398217618 ], [ 11780908.771214816719294, 2396428.316578670870513 ], [ 11780900.522440547123551, 2396437.214110021479428 ], [ 11780888.76710231974721, 2396443.284948312211782 ], [ 11780857.976131167262793, 2396453.35133307473734 ], [ 11780850.684704519808292, 2396455.223872101865709 ], [ 11780837.760511638596654, 2396458.47994361910969 ], [ 11780826.895729336887598, 2396487.939665419515222 ], [ 11780821.196171408519149, 2396503.289750346448272 ], [ 11780803.284865340217948, 2396551.749351791571826 ], [ 11780792.186312109231949, 2396585.777302536647767 ], [ 11780793.154791677370667, 2396598.90903176786378 ], [ 11780800.390558581799269, 2396603.023880799300969 ] ] ] } }
]
}
